NORAD_CAT_ID,OBJECT_NAME,OBJECT_TYPE,EPOCH,MEAN_MOTION,ECCENTRICITY,INCLINATION,RA_OF_ASC_NODE,ARG_OF_PERICENTER,MEAN_ANOMALY,BSTAR,MEAN_MOTION_DOT,MEAN_MOTION_DDOT,TLE_LINE0,TLE_LINE1,TLE_LINE2,SEMIMAJOR_AXIS,PERIOD,APOGEE,PERIGEE,DECAYED
55290.0,STARLINK-5266,PAYLOAD,2023-11-08 11:13:26,14.98333172,0.0002268,70.0022,13.2537,226.9206,133.1763,-1.7227e-05,-2.98e-06,0.0,0 STARLINK-5266,1 55290U 23010X   23312.46766551 -.00000298  00000-0 -17227-4 0  9992,2 55290  70.0022  13.2537 0002268 226.9206 133.1763 14.98333172 45318,6950.183,96.107,573.624,570.472,0.0
55290.0,STARLINK-5266,PAYLOAD,2023-11-08 14:25:42,14.98337368,0.0002296,70.0013,12.9158,242.0547,118.038,2.2083e-05,1.71e-06,0.0,0 STARLINK-5266,1 55290U 23010X   23312.60118192  .00000171  00000-0  22083-4 0  9994,2 55290  70.0013  12.9158 0002296 242.0547 118.0380 14.98337368 45634,6950.17,96.107,573.631,570.439,0.0
55290.0,STARLINK-5266,PAYLOAD,2023-11-08 20:50:14,14.98337469,0.0001986,70.0021,12.2438,246.0695,114.0256,1.1889e-05,4.9e-07,0.0,0 STARLINK-5266,1 55290U 23010X   23312.86822267  .00000049  00000-0  11889-4 0  9993,2 55290  70.0021  12.2438 0001986 246.0695 114.0256 14.98337469 45674,6950.17,96.107,573.415,570.654,0.0
55290.0,STARLINK-5266,PAYLOAD,2023-11-09 11:15:26,14.9832725,0.0002635,70.0011,10.7314,245.8412,114.2472,0.00055091,6.486e-05,0.0,0 STARLINK-5266,1 55290U 23010X   23313.46905370  .00006486  00000-0  55091-3 0  9990,2 55290  70.0011  10.7314 0002635 245.8412 114.2472 14.98327250 45461,6950.201,96.107,573.898,570.235,0.0
55290.0,STARLINK-5266,PAYLOAD,2023-11-09 14:27:42,14.98327683,0.0002487,70.0008,10.3913,258.8268,101.2612,0.00048003,5.639e-05,0.0,0 STARLINK-5266,1 55290U 23010X   23313.60257608  .00005639  00000-0  48003-3 0  9994,2 55290  70.0008  10.3913 0002487 258.8268 101.2612 14.98327683 45783,6950.2,96.107,573.794,570.337,0.0
55290.0,STARLINK-5266,PAYLOAD,2023-11-09 20:52:15,14.98326914,0.0002263,70.0031,9.7226,241.4547,118.6384,0.00015622,1.771e-05,0.0,0 STARLINK-5266,1 55290U 23010X   23313.86962533  .00001771  00000-0  15622-3 0  9996,2 55290  70.0031   9.7226 0002263 241.4547 118.6384 14.98326914 45827,6950.202,96.107,573.64,570.495,0.0
55290.0,STARLINK-5266,PAYLOAD,2023-11-10 12:53:36,14.98332047,0.0002029,70.0006,8.0346,252.2498,107.844,-3.6248e-05,-5.25e-06,0.0,0 STARLINK-5266,1 55290U 23010X   23314.53722533 -.00000525  00000-0 -36248-4 0  9991,2 55290  70.0006   8.0346 0002029 252.2498 107.8440 14.98332047 45927,6950.187,96.107,573.462,570.641,0.0
55290.0,STARLINK-5266,PAYLOAD,2023-11-11 03:18:48,14.98340069,0.0002296,70.0005,6.518,270.0572,90.0324,-0.00017646,-2.198e-05,0.0,0 STARLINK-5266,1 55290U 23010X   23315.13806076 -.00002198  00000-0 -17646-3 0  9991,2 55290  70.0005   6.5180 0002296 270.0572  90.0324 14.98340069 45716,6950.162,96.106,573.623,570.431,0.0
55290.0,STARLINK-5266,PAYLOAD,2023-11-11 12:55:36,14.98339291,0.0002545,69.9998,5.5077,263.2443,96.8426,-0.00012843,-1.625e-05,0.0,0 STARLINK-5266,1 55290U 23010X   23315.53861696 -.00001625  00000-0 -12843-3 0  9992,2 55290  69.9998   5.5077 0002545 263.2443  96.8426 14.98339291 46078,6950.164,96.106,573.798,570.26,0.0
55290.0,STARLINK-5266,PAYLOAD,2023-11-11 20:56:16,14.98342468,0.0002411,69.9999,4.6653,273.2116,86.8767,-0.00014276,-1.796e-05,0.0,0 STARLINK-5266,1 55290U 23010X   23315.87241410 -.00001796  00000-0 -14276-3 0  9996,2 55290  69.9999   4.6653 0002411 273.2116  86.8767 14.98342468 46122,6950.154,96.106,573.695,570.344,0.0
55290.0,STARLINK-5266,PAYLOAD,2023-11-12 11:21:27,14.98345263,0.0002681,69.9995,3.1507,268.5075,91.5777,0.00016569,1.885e-05,0.0,0 STARLINK-5266,1 55290U 23010X   23316.47323828  .00001885  00000-0  16569-3 0  9991,2 55290  69.9995   3.1507 0002681 268.5075  91.5777 14.98345263 45916,6950.146,96.106,573.874,570.147,0.0
55290.0,STARLINK-5266,PAYLOAD,2023-11-12 12:57:35,14.9834746,0.0002692,69.9994,2.9832,268.0868,91.9983,0.00019458,2.23e-05,0.0,0 STARLINK-5266,1 55290U 23010X   23316.53999555  .00002230  00000-0  19458-3 0  9999,2 55290  69.9994   2.9832 0002692 268.0868  91.9983 14.98347460 46229,6950.139,96.106,573.875,570.133,0.0
55290.0,STARLINK-5266,PAYLOAD,2023-11-12 20:58:17,14.98331303,0.0002825,69.9995,2.1406,265.7523,94.3313,1.387e-05,7.3e-07,0.0,0 STARLINK-5266,1 55290U 23010X   23316.87380788  .00000073  00000-0  13870-4 0  9994,2 55290  69.9995   2.1406 0002825 265.7523  94.3313 14.98331303 46277,6950.189,96.107,574.017,570.09,0.0
55290.0,STARLINK-5266,PAYLOAD,2023-11-13 03:22:49,14.98329172,0.0002678,69.9991,1.4672,266.1239,93.9613,-3.5782e-05,-5.2e-06,0.0,0 STARLINK-5266,1 55290U 23010X   23317.14085154 -.00000520  00000-0 -35782-4 0  9999,2 55290  69.9991   1.4672 0002678 266.1239  93.9613 14.98329172 46016,6950.195,96.107,573.922,570.199,0.0
55290.0,STARLINK-5266,PAYLOAD,2023-11-13 11:23:30,14.98326004,0.0002875,69.999,0.626,267.6533,92.4297,-7.5167e-05,-9.9e-06,0.0,0 STARLINK-5266,1 55290U 23010X   23317.47465429 -.00000990  00000-0 -75167-4 0  9994,2 55290  69.9990   0.6260 0002875 267.6533  92.4297 14.98326004 46362,6950.205,96.107,574.068,570.072,0.0
55290.0,STARLINK-5266,PAYLOAD,2023-11-13 12:59:38,14.98327098,0.0002835,69.9991,0.4575,267.0209,93.0625,-6.1356e-05,-8.25e-06,0.0,0 STARLINK-5266,1 55290U 23010X   23317.54141335 -.00000825  00000-0 -61356-4 0  9991,2 55290  69.9991   0.4575 0002835 267.0209  93.0625 14.98327098 46377,6950.202,96.107,574.037,570.096,0.0
55290.0,STARLINK-5266,PAYLOAD,2023-11-14 03:24:50,14.98333445,0.0002804,69.9993,358.9426,267.9829,92.1009,-0.00015764,-1.974e-05,0.0,0 STARLINK-5266,1 55290U 23010X   23318.14225194 -.00001974  00000-0 -15764-3 0  9991,2 55290  69.9993 358.9426 0002804 267.9829  92.1009 14.98333445 46164,6950.182,96.107,573.996,570.098,0.0
55290.0,STARLINK-5266,PAYLOAD,2023-11-14 13:01:38,14.98329674,0.0002815,69.9995,357.9333,268.1519,91.9318,-8.7027e-05,-1.131e-05,0.0,0 STARLINK-5266,1 55290U 23010X   23318.54281189 -.00001131  00000-0 -87027-4 0  9998,2 55290  69.9995 357.9333 0002815 268.1519  91.9318 14.98329674 46522,6950.194,96.107,574.015,570.102,0.0
55290.0,STARLINK-5266,PAYLOAD,2023-11-14 19:26:10,14.98348266,0.0002907,69.9995,357.2598,271.5278,88.5548,-0.00045046,-5.466e-05,0.0,0 STARLINK-5266,1 55290U 23010X   23318.80984783 -.00005466  00000-0 -45046-3 0  9996,2 55290  69.9995 357.2598 0002907 271.5278  88.5548 14.98348266 46569,6950.136,96.106,574.022,569.981,0.0
55290.0,STARLINK-5266,PAYLOAD,2023-11-15 03:26:51,14.98322534,0.0002807,69.9993,356.418,268.1982,91.8856,4.8201e-05,4.82e-06,0.0,0 STARLINK-5266,1 55290U 23010X   23319.14365322  .00000482  00000-0  48201-4 0  9994,2 55290  69.9993 356.4180 0002807 268.1982  91.8856 14.98322534 46310,6950.216,96.107,574.032,570.13,0.0
55290.0,STARLINK-5266,PAYLOAD,2023-11-15 13:03:40,14.9832366,0.0002671,69.9995,355.4081,269.6367,90.4486,6.3991e-05,6.71e-06,0.0,0 STARLINK-5266,1 55290U 23010X   23319.54421422  .00000671  00000-0  63991-4 0  9995,2 55290  69.9995 355.4081 0002671 269.6367  90.4486 14.98323660 46677,6950.212,96.107,573.934,570.221,0.0
55290.0,STARLINK-5266,PAYLOAD,2023-11-15 19:28:12,14.98325732,0.0002571,69.9999,354.7346,273.7903,86.2962,4.0041e-05,3.85e-06,0.0,0 STARLINK-5266,1 55290U 23010X   23319.81125489  .00000385  00000-0  40041-4 0  9992,2 55290  69.9999 354.7346 0002571 273.7903  86.2962 14.98325732 46717,6950.206,96.107,573.858,570.284,0.0
55290.0,STARLINK-5266,PAYLOAD,2023-11-16 08:17:16,14.98326962,0.0002576,69.9993,353.3872,267.3298,92.7566,6.8685e-05,7.27e-06,0.0,0 STARLINK-5266,1 55290U 23010X   23320.34533326  .00000727  00000-0  68685-4 0  9999,2 55290  69.9993 353.3872 0002576 267.3298  92.7566 14.98326962 46494,6950.202,96.107,573.858,570.277,0.0
55290.0,STARLINK-5266,PAYLOAD,2023-11-16 19:30:12,14.98348624,0.0002604,70.0,352.209,275.8662,84.22,-0.0003544,-4.321e-05,0.0,0 STARLINK-5266,1 55290U 23010X   23320.81265007 -.00004321  00000-0 -35440-3 0  9997,2 55290  70.0000 352.2090 0002604 275.8662  84.2200 14.98348624 46868,6950.135,96.106,573.81,570.19,0.0
55290.0,STARLINK-5266,PAYLOAD,2023-11-17 01:54:46,14.98299063,0.0002489,70.0005,351.5358,272.5203,87.5671,0.00046287,5.43e-05,0.0,0 STARLINK-5266,1 55290U 23010X   23321.07970195  .00005430  00000-0  46287-3 0  9998,2 55290  70.0005 351.5358 0002489 272.5203  87.5671 14.98299063 46600,6950.289,96.109,573.883,570.424,0.0
55290.0,STARLINK-5266,PAYLOAD,2023-11-17 11:31:30,14.983817,0.0002486,70.0004,350.5249,269.2761,90.8113,0.00055291,6.519e-05,0.0,0 STARLINK-5266,1 55290U 23010X   23321.48021036  .00006519  00000-0  55291-3 0  9998,2 55290  70.0004 350.5249 0002486 269.2761  90.8113 14.98381700 46660,6950.033,96.104,573.626,570.17,0.0
55290.0,STARLINK-5266,PAYLOAD,2023-11-17 19:32:14,14.9832848,0.0002839,70.0,349.6833,275.0872,84.9963,-3.7591e-06,-1.38e-06,0.0,0 STARLINK-5266,1 55290U 23010X   23321.81405522 -.00000138  00000-0 -37591-5 0  9999,2 55290  70.0000 349.6833 0002839 275.0872  84.9963 14.98328480 46713,6950.198,96.107,574.036,570.089,0.0
55290.0,STARLINK-5266,PAYLOAD,2023-11-18 11:33:35,14.98327111,0.0002181,70.0,348.0005,249.0708,111.0218,-2.4916e-05,-3.9e-06,0.0,0 STARLINK-5266,1 55290U 23010X   23322.48165665 -.00000390  00000-0 -24916-4 0  9990,2 55290  70.0000 348.0005 0002181 249.0708 111.0218 14.98327111 47116,6950.202,96.107,573.583,570.551,0.0
55290.0,STARLINK-5266,PAYLOAD,2023-11-18 19:34:15,14.98327972,0.0002343,70.0013,347.1584,273.0856,87.0035,1.5812e-05,9.6e-07,0.0,0 STARLINK-5266,1 55290U 23010X   23322.81545614  .00000096  00000-0  15812-4 0  9999,2 55290  70.0013 347.1584 0002343 273.0856  87.0035 14.98327972 46868,6950.199,96.107,573.693,570.436,0.0
55290.0,STARLINK-5266,PAYLOAD,2023-11-19 11:35:35,14.98329432,0.0002776,69.9989,345.4755,269.3133,90.7708,3.5814e-05,3.34e-06,0.0,0 STARLINK-5266,1 55290U 23010X   23323.48305266  .00000334  00000-0  35814-4 0  9999,2 55290  69.9989 345.4755 0002776 269.3133  90.7708 14.98329432 47260,6950.195,96.107,573.989,570.13,0.0
